{
    "links": {
        "self": "http://www.neowsapp.com/rest/v1/neo/3621812?api_key=iIulBulltgU6a56xZRHN4H3l9WmuAYTsLGpBGhQ2"
    },
    "id": "3621812",
    "neo_reference_id": "3621812",
    "name": "(2012 YJ7)",
    "designation": "2012 YJ7",
    "nasa_jpl_url": "http://ssd.jpl.nasa.gov/sbdb.cgi?sstr=3621812",
    "absolute_magnitude_h": 22.4,
    "estimated_diameter": {
        "kilometers": {
            "estimated_diameter_min": 0.0880146521,
            "estimated_diameter_max": 0.1968067451
        },
        "meters": {
            "estimated_diameter_min": 88.0146520901,
            "estimated_diameter_max": 196.8067450894
        },
        "miles": {
            "estimated_diameter_min": 0.0546897524,
            "estimated_diameter_max": 0.122290004
        },
        "feet": {
            "estimated_diameter_min": 288.7619911632,
            "estimated_diameter_max": 645.6914415591
        }
    },
    "is_potentially_hazardous_asteroid": false,
    "close_approach_data": [
        {
            "close_approach_date": "2013-01-10",
            "close_approach_date_full": "2013-Jan-10 01:06",
            "epoch_date_close_approach": 1357779960000,
            "relative_velocity": {
                "kilometers_per_second": "20.4587591385",
                "kilometers_per_hour": "73651.532898758",
                "miles_per_hour": "45764.1983170088"
            },
            "miss_distance": {
                "astronomical": "0.0498893467",
                "lunar": "19.4069558663",
                "kilometers": "7463340.002011529",
                "miles": "4637504.4333119402"
            },
            "orbiting_body": "Earth"
        },
        {
            "close_approach_date": "2050-05-01",
            "close_approach_date_full": "2050-May-01 15:26",
            "epoch_date_close_approach": 2535031560000,
            "relative_velocity": {
                "kilometers_per_second": "18.481505071",
                "kilometers_per_hour": "66533.4182556698",
                "miles_per_hour": "41341.2786933633"
            },
            "miss_distance": {
                "astronomical": "0.3947050899",
                "lunar": "153.5402799711",
                "kilometers": "59047040.727198513",
                "miles": "36690129.7639569594"
            },
            "orbiting_body": "Earth"
        }
    ],
    "orbital_data": {
        "orbit_id": "5",
        "orbit_determination_date": "2017-04-06 08:47:30",
        "first_observation_date": "2012-12-22",
        "last_observation_date": "2013-01-05",
        "data_arc_in_days": 14,
        "observations_used": 13,
        "orbit_uncertainty": "9",
        "minimum_orbit_intersection": ".0151506",
        "jupiter_tisserand_invariant": "4.076",
        "epoch_osculation": "2456285.5",
        "eccentricity": ".627696358247539",
        "semi_major_axis": "1.62161528588743",
        "inclination": "3.999328947220757",
        "ascending_node_longitude": "307.5313595578748",
        "orbital_period": "754.2584271335096",
        "perihelion_distance": ".6037332764573483",
        "perihelion_argument": "254.6619716250418",
        "aphelion_distance": "2.639497295317511",
        "perihelion_time": "2456350.742967455245",
        "mean_anomaly": "328.8601844686705",
        "mean_motion": ".4772899937865423",
        "equinox": "J2000",
        "orbit_class": {
            "orbit_class_type": "APO",
            "orbit_class_description": "Near-Earth asteroid orbits which cross the Earth’s orbit similar to that of 1862 Apollo",
            "orbit_class_range": "a (semi-major axis) > 1.0 AU; q (perihelion) < 1.017 AU"
        }
    },
    "is_sentry_object": false
}